STARLINK-37340          
1 68708U 26081K   26115.48199328  .00293926  00000+0  14350-2 0  9990
2 68708  53.1599 186.3652 0001234 122.2476 237.8667 15.80987518  1774
STARLINK-37303          
1 68709U 26081L   26115.60693598  .00395064  00000+0  19053-2 0  9994
2 68709  53.1596 185.7229 0001325  65.1391 294.9770 15.80982698  1792
STARLINK-36859          
1 68710U 26081M   26115.60618658  .00314818  00000+0  15378-2 0  9994
2 68710  53.1599 185.7170 0001695  52.8699 307.2479 15.80919688  1799
STARLINK-37320          
1 68711U 26081N   26115.60543816  .00310623  00000+0  15207-2 0  9999
2 68711  53.1602 185.7112 0001691  83.7963 276.3252 15.80882353  1797
STARLINK-37318          
1 68712U 26081P   26116.17366597  .00254292  00000+0  12507-2 0  9991
2 68712  53.1601 182.8568 0001408  41.4495 318.6634 15.80935878  1882
STARLINK-37305          
1 68713U 26081Q   26116.67866143  .00303929  00000+0  14796-2 0  9993
2 68713  53.1599 180.3169 0001118 142.4089 217.7013 15.81022611  1960
STARLINK-37225          
1 68714U 26081R   26116.67791193  .00249968  00000+0  12264-2 0  9996
2 68714  53.1599 180.3110 0001191 135.5520 224.5599 15.81001552  1967
STARLINK-37322          
1 68715U 26081S   26116.67715987  .00211970  00000+0  10454-2 0  9995
2 68715  53.1596 180.3065 0000768  84.0587 276.0523 15.80994910  1961
STARLINK-36337          
1 68716U 26081T   26116.67641416  .00291135  00000+0  14208-2 0  9993
2 68716  53.1593 180.3004 0001406  89.8323 270.2861 15.81004357  1962
STARLINK-36685          
1 68717U 26081U   26116.67566312  .00227595  00000+0  11207-2 0  9990
2 68717  53.1596 180.2965 0001253 108.6610 251.4549 15.80985099  1964
STARLINK-36684          
1 68718U 26081V   26115.47374491  .00395335  00000+0  19045-2 0  9999
2 68718  53.1582 186.3088 0001314  94.2614 265.8559 15.81005954  1778
STARLINK-36686          
1 68719U 26081W   26115.53547104  .00465168  00000+0  22231-2 0  9993
2 68719  53.1594 185.9826 0000592  82.1133 277.9957 15.80994297  1789
STARLINK-36681          
1 68720U 26081X   26115.59943529  .00219832  00000+0  10851-2 0  9992
2 68720  53.1603 185.6707 0001628  64.8993 295.2199 15.80953784  1797
STARLINK-36680          
1 68721U 26081Y   26115.47149609  .00356314  00000+0  17321-2 0  9993
2 68721  53.1611 186.2943 0000824  84.2472 275.8645 15.80912888  1779
STARLINK-37271          
1 68722U 26081Z   26115.59718864  .00314842  00000+0  15371-2 0  9995
2 68722  53.1599 185.6559 0001452  74.1118 286.0065 15.80931676  1792
STARLINK-37273          
1 68723U 26081AA  26115.59643816  .00275115  00000+0  13502-2 0  9993
2 68723  53.1595 185.6505 0001877  79.3491 280.7743 15.80925842  1794
