[{"OBJECT_NAME":"STARLINK-37340","OBJECT_ID":"2026-081K","EPOCH":"2026-04-25T11:34:04.219392","MEAN_MOTION":15.80987518,"ECCENTRICITY":0.00012349,"INCLINATION":53.1599,"RA_OF_ASC_NODE":186.3652,"ARG_OF_PERICENTER":122.2476,"MEAN_ANOMALY":237.8667,"EPHEMERIS_TYPE":0,"CLASSIFICATION_TYPE":"U","NORAD_CAT_ID":68708,"ELEMENT_SET_NO":999,"REV_AT_EPOCH":177,"BSTAR":0.0014350159,"MEAN_MOTION_DOT":0.00293926,"MEAN_MOTION_DDOT":0},{"OBJECT_NAME":"STARLINK-37303","OBJECT_ID":"2026-081L","EPOCH":"2026-04-25T14:33:59.268672","MEAN_MOTION":15.80982698,"ECCENTRICITY":0.00013253,"INCLINATION":53.1596,"RA_OF_ASC_NODE":185.7229,"ARG_OF_PERICENTER":65.1391,"MEAN_ANOMALY":294.977,"EPHEMERIS_TYPE":0,"CLASSIFICATION_TYPE":"U","NORAD_CAT_ID":68709,"ELEMENT_SET_NO":999,"REV_AT_EPOCH":179,"BSTAR":0.0019053261,"MEAN_MOTION_DOT":0.00395064,"MEAN_MOTION_DDOT":0},{"OBJECT_NAME":"STARLINK-36859","OBJECT_ID":"2026-081M","EPOCH":"2026-04-25T14:32:54.520512","MEAN_MOTION":15.80919688,"ECCENTRICITY":0.00016959,"INCLINATION":53.1599,"RA_OF_ASC_NODE":185.717,"ARG_OF_PERICENTER":52.8699,"MEAN_ANOMALY":307.2479,"EPHEMERIS_TYPE":0,"CLASSIFICATION_TYPE":"U","NORAD_CAT_ID":68710,"ELEMENT_SET_NO":999,"REV_AT_EPOCH":179,"BSTAR":0.0015378167,"MEAN_MOTION_DOT":0.00314818,"MEAN_MOTION_DDOT":0},{"OBJECT_NAME":"STARLINK-37320","OBJECT_ID":"2026-081N","EPOCH":"2026-04-25T14:31:49.857024","MEAN_MOTION":15.80882353,"ECCENTRICITY":0.00016911,"INCLINATION":53.1602,"RA_OF_ASC_NODE":185.7112,"ARG_OF_PERICENTER":83.7963,"MEAN_ANOMALY":276.3252,"EPHEMERIS_TYPE":0,"CLASSIFICATION_TYPE":"U","NORAD_CAT_ID":68711,"ELEMENT_SET_NO":999,"REV_AT_EPOCH":179,"BSTAR":0.0015207223,"MEAN_MOTION_DOT":0.00310623,"MEAN_MOTION_DDOT":0},{"OBJECT_NAME":"STARLINK-37318","OBJECT_ID":"2026-081P","EPOCH":"2026-04-26T04:10:04.739808","MEAN_MOTION":15.80935878,"ECCENTRICITY":0.00014083,"INCLINATION":53.1601,"RA_OF_ASC_NODE":182.8568,"ARG_OF_PERICENTER":41.4495,"MEAN_ANOMALY":318.6634,"EPHEMERIS_TYPE":0,"CLASSIFICATION_TYPE":"U","NORAD_CAT_ID":68712,"ELEMENT_SET_NO":999,"REV_AT_EPOCH":188,"BSTAR":0.0012507089,"MEAN_MOTION_DOT":0.00254292,"MEAN_MOTION_DDOT":0},{"OBJECT_NAME":"STARLINK-37305","OBJECT_ID":"2026-081Q","EPOCH":"2026-04-26T16:17:16.347552","MEAN_MOTION":15.81022611,"ECCENTRICITY":0.00011189,"INCLINATION":53.1599,"RA_OF_ASC_NODE":180.3169,"ARG_OF_PERICENTER":142.4089,"MEAN_ANOMALY":217.7013,"EPHEMERIS_TYPE":0,"CLASSIFICATION_TYPE":"U","NORAD_CAT_ID":68713,"ELEMENT_SET_NO":999,"REV_AT_EPOCH":196,"BSTAR":0.0014796038,"MEAN_MOTION_DOT":0.00303929,"MEAN_MOTION_DDOT":0},{"OBJECT_NAME":"STARLINK-37225","OBJECT_ID":"2026-081R","EPOCH":"2026-04-26T16:16:11.590752","MEAN_MOTION":15.81001552,"ECCENTRICITY":0.00011914,"INCLINATION":53.1599,"RA_OF_ASC_NODE":180.311,"ARG_OF_PERICENTER":135.552,"MEAN_ANOMALY":224.5599,"EPHEMERIS_TYPE":0,"CLASSIFICATION_TYPE":"U","NORAD_CAT_ID":68714,"ELEMENT_SET_NO":999,"REV_AT_EPOCH":196,"BSTAR":0.0012264083,"MEAN_MOTION_DOT":0.00249968,"MEAN_MOTION_DDOT":0},{"OBJECT_NAME":"STARLINK-37322","OBJECT_ID":"2026-081S","EPOCH":"2026-04-26T16:15:06.612768","MEAN_MOTION":15.8099491,"ECCENTRICITY":7.68e-5,"INCLINATION":53.1596,"RA_OF_ASC_NODE":180.3065,"ARG_OF_PERICENTER":84.0587,"MEAN_ANOMALY":276.0523,"EPHEMERIS_TYPE":0,"CLASSIFICATION_TYPE":"U","NORAD_CAT_ID":68715,"ELEMENT_SET_NO":999,"REV_AT_EPOCH":196,"BSTAR":0.0010454388,"MEAN_MOTION_DOT":0.0021197,"MEAN_MOTION_DDOT":0},{"OBJECT_NAME":"STARLINK-36337","OBJECT_ID":"2026-081T","EPOCH":"2026-04-26T16:14:02.183424","MEAN_MOTION":15.81004357,"ECCENTRICITY":0.00014067,"INCLINATION":53.1593,"RA_OF_ASC_NODE":180.3004,"ARG_OF_PERICENTER":89.8323,"MEAN_ANOMALY":270.2861,"EPHEMERIS_TYPE":0,"CLASSIFICATION_TYPE":"U","NORAD_CAT_ID":68716,"ELEMENT_SET_NO":999,"REV_AT_EPOCH":196,"BSTAR":0.001420786,"MEAN_MOTION_DOT":0.00291135,"MEAN_MOTION_DDOT":0},{"OBJECT_NAME":"STARLINK-36685","OBJECT_ID":"2026-081U","EPOCH":"2026-04-26T16:12:57.293568","MEAN_MOTION":15.80985099,"ECCENTRICITY":0.00012531,"INCLINATION":53.1596,"RA_OF_ASC_NODE":180.2965,"ARG_OF_PERICENTER":108.661,"MEAN_ANOMALY":251.4549,"EPHEMERIS_TYPE":0,"CLASSIFICATION_TYPE":"U","NORAD_CAT_ID":68717,"ELEMENT_SET_NO":999,"REV_AT_EPOCH":196,"BSTAR":0.0011207174,"MEAN_MOTION_DOT":0.00227595,"MEAN_MOTION_DDOT":0},{"OBJECT_NAME":"STARLINK-36684","OBJECT_ID":"2026-081V","EPOCH":"2026-04-25T11:22:11.560224","MEAN_MOTION":15.81005954,"ECCENTRICITY":0.00013144,"INCLINATION":53.1582,"RA_OF_ASC_NODE":186.3088,"ARG_OF_PERICENTER":94.2614,"MEAN_ANOMALY":265.8559,"EPHEMERIS_TYPE":0,"CLASSIFICATION_TYPE":"U","NORAD_CAT_ID":68718,"ELEMENT_SET_NO":999,"REV_AT_EPOCH":177,"BSTAR":0.0019045304,"MEAN_MOTION_DOT":0.00395335,"MEAN_MOTION_DDOT":0},{"OBJECT_NAME":"STARLINK-36686","OBJECT_ID":"2026-081W","EPOCH":"2026-04-25T12:51:04.697856","MEAN_MOTION":15.80994297,"ECCENTRICITY":5.924e-5,"INCLINATION":53.1594,"RA_OF_ASC_NODE":185.9826,"ARG_OF_PERICENTER":82.1133,"MEAN_ANOMALY":277.9957,"EPHEMERIS_TYPE":0,"CLASSIFICATION_TYPE":"U","NORAD_CAT_ID":68719,"ELEMENT_SET_NO":999,"REV_AT_EPOCH":178,"BSTAR":0.0022230572,"MEAN_MOTION_DOT":0.00465168,"MEAN_MOTION_DDOT":0},{"OBJECT_NAME":"STARLINK-36681","OBJECT_ID":"2026-081X","EPOCH":"2026-04-25T14:23:11.209056","MEAN_MOTION":15.80953784,"ECCENTRICITY":0.00016287,"INCLINATION":53.1603,"RA_OF_ASC_NODE":185.6707,"ARG_OF_PERICENTER":64.8993,"MEAN_ANOMALY":295.2199,"EPHEMERIS_TYPE":0,"CLASSIFICATION_TYPE":"U","NORAD_CAT_ID":68720,"ELEMENT_SET_NO":999,"REV_AT_EPOCH":179,"BSTAR":0.0010851472,"MEAN_MOTION_DOT":0.00219832,"MEAN_MOTION_DDOT":0},{"OBJECT_NAME":"STARLINK-36680","OBJECT_ID":"2026-081Y","EPOCH":"2026-04-25T11:18:57.262176","MEAN_MOTION":15.80912888,"ECCENTRICITY":8.243e-5,"INCLINATION":53.1611,"RA_OF_ASC_NODE":186.2943,"ARG_OF_PERICENTER":84.2472,"MEAN_ANOMALY":275.8645,"EPHEMERIS_TYPE":0,"CLASSIFICATION_TYPE":"U","NORAD_CAT_ID":68721,"ELEMENT_SET_NO":999,"REV_AT_EPOCH":177,"BSTAR":0.0017321069,"MEAN_MOTION_DOT":0.00356314,"MEAN_MOTION_DDOT":0},{"OBJECT_NAME":"STARLINK-37271","OBJECT_ID":"2026-081Z","EPOCH":"2026-04-25T14:19:57.098496","MEAN_MOTION":15.80931676,"ECCENTRICITY":0.00014524,"INCLINATION":53.1599,"RA_OF_ASC_NODE":185.6559,"ARG_OF_PERICENTER":74.1118,"MEAN_ANOMALY":286.0065,"EPHEMERIS_TYPE":0,"CLASSIFICATION_TYPE":"U","NORAD_CAT_ID":68722,"ELEMENT_SET_NO":999,"REV_AT_EPOCH":179,"BSTAR":0.0015370802,"MEAN_MOTION_DOT":0.00314842,"MEAN_MOTION_DDOT":0},{"OBJECT_NAME":"STARLINK-37273","OBJECT_ID":"2026-081AA","EPOCH":"2026-04-25T14:18:52.257024","MEAN_MOTION":15.80925842,"ECCENTRICITY":0.00018777,"INCLINATION":53.1595,"RA_OF_ASC_NODE":185.6505,"ARG_OF_PERICENTER":79.3491,"MEAN_ANOMALY":280.7743,"EPHEMERIS_TYPE":0,"CLASSIFICATION_TYPE":"U","NORAD_CAT_ID":68723,"ELEMENT_SET_NO":999,"REV_AT_EPOCH":179,"BSTAR":0.0013501704,"MEAN_MOTION_DOT":0.00275115,"MEAN_MOTION_DDOT":0}]
